{"fetched_at":"2026-07-07T18:29:30.211Z","source":"https://celestrak.org/NORAD/elements/gp.php?NAME=HAWK&FORMAT=JSON","constellation":"hawkeye-360","records":[{"OBJECT_NAME":"HAWK-A","OBJECT_ID":"2018-099H","EPOCH":"2026-07-07T10:18:50.700672","CLASSIFICATION_TYPE":"U","MEAN_MOTION":15.24897073,"ECCENTRICITY":0.0033919,"INCLINATION":97.3902,"RA_OF_ASC_NODE":240.4034,"ARG_OF_PERICENTER":211.6002,"MEAN_ANOMALY":148.3199,"EPHEMERIS_TYPE":0,"NORAD_CAT_ID":43765,"ELEMENT_SET_NO":999,"REV_AT_EPOCH":41618,"BSTAR":0.0001995,"MEAN_MOTION_DOT":0.00004969,"MEAN_MOTION_DDOT":0},{"OBJECT_NAME":"HAWK-B","OBJECT_ID":"2018-099AN","EPOCH":"2026-07-07T03:31:43.615776","CLASSIFICATION_TYPE":"U","MEAN_MOTION":15.23054425,"ECCENTRICITY":0.0030668,"INCLINATION":97.3948,"RA_OF_ASC_NODE":239.4973,"ARG_OF_PERICENTER":231.0979,"MEAN_ANOMALY":128.7522,"EPHEMERIS_TYPE":0,"NORAD_CAT_ID":43794,"ELEMENT_SET_NO":999,"REV_AT_EPOCH":41607,"BSTAR":0.00019709,"MEAN_MOTION_DOT":0.00004629,"MEAN_MOTION_DDOT":0},{"OBJECT_NAME":"HAWK-C","OBJECT_ID":"2018-099AT","EPOCH":"2026-07-07T02:21:36.114624","CLASSIFICATION_TYPE":"U","MEAN_MOTION":15.284042,"ECCENTRICITY":0.0039526,"INCLINATION":97.3878,"RA_OF_ASC_NODE":241.087,"ARG_OF_PERICENTER":212.7144,"MEAN_ANOMALY":147.1647,"EPHEMERIS_TYPE":0,"NORAD_CAT_ID":43799,"ELEMENT_SET_NO":999,"REV_AT_EPOCH":41695,"BSTAR":0.00022825,"MEAN_MOTION_DOT":0.00006382,"MEAN_MOTION_DDOT":0},{"OBJECT_NAME":"HAWK-2C","OBJECT_ID":"2021-006CT","EPOCH":"2026-07-07T02:28:14.113632","CLASSIFICATION_TYPE":"U","MEAN_MOTION":15.3491953,"ECCENTRICITY":0.0008438,"INCLINATION":97.2268,"RA_OF_ASC_NODE":232.0168,"ARG_OF_PERICENTER":124.2013,"MEAN_ANOMALY":236.0032,"EPHEMERIS_TYPE":0,"NORAD_CAT_ID":47502,"ELEMENT_SET_NO":999,"REV_AT_EPOCH":30255,"BSTAR":0.0001463,"MEAN_MOTION_DOT":0.00004881,"MEAN_MOTION_DDOT":0},{"OBJECT_NAME":"HAWK-2A","OBJECT_ID":"2021-006CW","EPOCH":"2026-07-07T02:31:33.067776","CLASSIFICATION_TYPE":"U","MEAN_MOTION":15.34933694,"ECCENTRICITY":0.0007917,"INCLINATION":97.2309,"RA_OF_ASC_NODE":232.7085,"ARG_OF_PERICENTER":127.1585,"MEAN_ANOMALY":233.0383,"EPHEMERIS_TYPE":0,"NORAD_CAT_ID":47505,"ELEMENT_SET_NO":999,"REV_AT_EPOCH":30255,"BSTAR":0.00014619,"MEAN_MOTION_DOT":0.00004879,"MEAN_MOTION_DDOT":0},{"OBJECT_NAME":"HAWK-2B","OBJECT_ID":"2021-006CZ","EPOCH":"2026-07-07T02:23:11.220288","CLASSIFICATION_TYPE":"U","MEAN_MOTION":15.35057195,"ECCENTRICITY":0.000849,"INCLINATION":97.2179,"RA_OF_ASC_NODE":231.0031,"ARG_OF_PERICENTER":125.6837,"MEAN_ANOMALY":234.5198,"EPHEMERIS_TYPE":0,"NORAD_CAT_ID":47508,"ELEMENT_SET_NO":999,"REV_AT_EPOCH":30255,"BSTAR":0.00016777,"MEAN_MOTION_DOT":0.00005634,"MEAN_MOTION_DDOT":0},{"OBJECT_NAME":"HAWK-3B","OBJECT_ID":"2021-059BE","EPOCH":"2026-07-06T12:06:19.954368","CLASSIFICATION_TYPE":"U","MEAN_MOTION":15.71268243,"ECCENTRICITY":0.0003758,"INCLINATION":97.6647,"RA_OF_ASC_NODE":26.0618,"ARG_OF_PERICENTER":231.7433,"MEAN_ANOMALY":128.3491,"EPHEMERIS_TYPE":0,"NORAD_CAT_ID":48931,"ELEMENT_SET_NO":999,"REV_AT_EPOCH":28088,"BSTAR":0.00028563,"MEAN_MOTION_DOT":0.00036099,"MEAN_MOTION_DDOT":0},{"OBJECT_NAME":"HAWK-3C","OBJECT_ID":"2021-059BX","EPOCH":"2026-07-07T00:19:31.958112","CLASSIFICATION_TYPE":"U","MEAN_MOTION":15.71298826,"ECCENTRICITY":0.0003979,"INCLINATION":97.6768,"RA_OF_ASC_NODE":32.3408,"ARG_OF_PERICENTER":231.9425,"MEAN_ANOMALY":128.1479,"EPHEMERIS_TYPE":0,"NORAD_CAT_ID":48948,"ELEMENT_SET_NO":999,"REV_AT_EPOCH":28096,"BSTAR":0.00028021,"MEAN_MOTION_DOT":0.00035456,"MEAN_MOTION_DDOT":0},{"OBJECT_NAME":"HAWK-3A","OBJECT_ID":"2021-059CG","EPOCH":"2026-07-07T00:19:22.130112","CLASSIFICATION_TYPE":"U","MEAN_MOTION":15.71296947,"ECCENTRICITY":0.0003887,"INCLINATION":97.6708,"RA_OF_ASC_NODE":29.5295,"ARG_OF_PERICENTER":234.0895,"MEAN_ANOMALY":126.0006,"EPHEMERIS_TYPE":0,"NORAD_CAT_ID":48957,"ELEMENT_SET_NO":999,"REV_AT_EPOCH":28096,"BSTAR":0.00028767,"MEAN_MOTION_DOT":0.00036405,"MEAN_MOTION_DDOT":0},{"OBJECT_NAME":"HAWK-5C","OBJECT_ID":"2022-057Y","EPOCH":"2026-07-07T10:07:09.397056","CLASSIFICATION_TYPE":"U","MEAN_MOTION":15.52127476,"ECCENTRICITY":0.0003603,"INCLINATION":97.6616,"RA_OF_ASC_NODE":349.4067,"ARG_OF_PERICENTER":15.7135,"MEAN_ANOMALY":344.4228,"EPHEMERIS_TYPE":0,"NORAD_CAT_ID":52754,"ELEMENT_SET_NO":999,"REV_AT_EPOCH":22948,"BSTAR":0.00022921,"MEAN_MOTION_DOT":0.00013756,"MEAN_MOTION_DDOT":0},{"OBJECT_NAME":"HAWK-5B","OBJECT_ID":"2022-057AA","EPOCH":"2026-07-07T10:06:52.904160","CLASSIFICATION_TYPE":"U","MEAN_MOTION":15.52132556,"ECCENTRICITY":0.0004175,"INCLINATION":97.6632,"RA_OF_ASC_NODE":347.7585,"ARG_OF_PERICENTER":3.3588,"MEAN_ANOMALY":356.7691,"EPHEMERIS_TYPE":0,"NORAD_CAT_ID":52756,"ELEMENT_SET_NO":999,"REV_AT_EPOCH":22948,"BSTAR":0.00022825,"MEAN_MOTION_DOT":0.00013702,"MEAN_MOTION_DDOT":0},{"OBJECT_NAME":"HAWK-5A","OBJECT_ID":"2022-057AB","EPOCH":"2026-07-07T10:06:36.084672","CLASSIFICATION_TYPE":"U","MEAN_MOTION":15.52132132,"ECCENTRICITY":0.0004091,"INCLINATION":97.6627,"RA_OF_ASC_NODE":348.5893,"ARG_OF_PERICENTER":8.2298,"MEAN_ANOMALY":351.902,"EPHEMERIS_TYPE":0,"NORAD_CAT_ID":52757,"ELEMENT_SET_NO":999,"REV_AT_EPOCH":22948,"BSTAR":0.00022853,"MEAN_MOTION_DOT":0.00013718,"MEAN_MOTION_DDOT":0},{"OBJECT_NAME":"HAWK-6B","OBJECT_ID":"2023-011A","EPOCH":"2026-07-07T12:15:08.701632","CLASSIFICATION_TYPE":"U","MEAN_MOTION":15.23109588,"ECCENTRICITY":0.0003026,"INCLINATION":40.4971,"RA_OF_ASC_NODE":233.5181,"ARG_OF_PERICENTER":198.0696,"MEAN_ANOMALY":162.0006,"EPHEMERIS_TYPE":0,"NORAD_CAT_ID":55324,"ELEMENT_SET_NO":999,"REV_AT_EPOCH":19094,"BSTAR":0.0001204,"MEAN_MOTION_DOT":0.00002705,"MEAN_MOTION_DDOT":0},{"OBJECT_NAME":"HAWK-6C","OBJECT_ID":"2023-011C","EPOCH":"2026-07-07T12:14:15.043776","CLASSIFICATION_TYPE":"U","MEAN_MOTION":15.23109837,"ECCENTRICITY":0.0003395,"INCLINATION":40.4958,"RA_OF_ASC_NODE":230.3577,"ARG_OF_PERICENTER":184.775,"MEAN_ANOMALY":175.3028,"EPHEMERIS_TYPE":0,"NORAD_CAT_ID":55326,"ELEMENT_SET_NO":999,"REV_AT_EPOCH":19095,"BSTAR":0.00012945,"MEAN_MOTION_DOT":0.00002923,"MEAN_MOTION_DDOT":0},{"OBJECT_NAME":"HAWK-6A","OBJECT_ID":"2023-011D","EPOCH":"2026-07-07T12:14:17.913120","CLASSIFICATION_TYPE":"U","MEAN_MOTION":15.23110974,"ECCENTRICITY":0.0002933,"INCLINATION":40.4968,"RA_OF_ASC_NODE":231.9843,"ARG_OF_PERICENTER":183.267,"MEAN_ANOMALY":176.8121,"EPHEMERIS_TYPE":0,"NORAD_CAT_ID":55327,"ELEMENT_SET_NO":999,"REV_AT_EPOCH":19095,"BSTAR":0.00012864,"MEAN_MOTION_DOT":0.00002904,"MEAN_MOTION_DDOT":0},{"OBJECT_NAME":"HAWK-7A","OBJECT_ID":"2023-054P","EPOCH":"2026-07-07T08:28:24.478176","CLASSIFICATION_TYPE":"U","MEAN_MOTION":15.27577059,"ECCENTRICITY":0.000233,"INCLINATION":97.2674,"RA_OF_ASC_NODE":75.1775,"ARG_OF_PERICENTER":6.4575,"MEAN_ANOMALY":353.6694,"EPHEMERIS_TYPE":0,"NORAD_CAT_ID":56191,"ELEMENT_SET_NO":999,"REV_AT_EPOCH":18010,"BSTAR":0.00015193,"MEAN_MOTION_DOT":0.00004025,"MEAN_MOTION_DDOT":0}]}
